{
    "type": "FeatureCollection",
    "features": [
        {
            "id": "0",
            "type": "Feature",
            "properties": {
                "date": "2022-09-21",
                "depth_to_base": 6.494,
                "ground_level_elevation": 0.44,
                "elevation_at_base": 6.494,
                "standard": "ISO22476D1",
                "location_source_id": "CPT000000198149",
                "color": "#DC143C"
            },
            "geometry": {
                "type": "LineString",
                "coordinates": [
                    [
                        4.906947539845893,
                        52.386855592965894,
                        43.399165911167934
                    ],
                    [
                        4.906947539845893,
                        52.386855592965894,
                        36.905165911167934
                    ]
                ]
            }
        },
        {
            "id": "1",
            "type": "Feature",
            "properties": {
                "date": "2022-08-24",
                "depth_to_base": 30.549,
                "ground_level_elevation": 0.6,
                "elevation_at_base": 30.549,
                "standard": "ISO22476D1",
                "location_source_id": "CPT000000198175",
                "color": "#DC143C"
            },
            "geometry": {
                "type": "LineString",
                "coordinates": [
                    [
                        4.906428567359198,
                        52.387465908999275,
                        43.55840934932442
                    ],
                    [
                        4.906428567359198,
                        52.387465908999275,
                        13.009409349324422
                    ]
                ]
            }
        },
        {
            "id": "2",
            "type": "Feature",
            "properties": {
                "date": "2022-08-24",
                "depth_to_base": 30.509,
                "ground_level_elevation": 1.82,
                "elevation_at_base": 30.509,
                "standard": "ISO22476D1",
                "location_source_id": "CPT000000198161",
                "color": "#DC143C"
            },
            "geometry": {
                "type": "LineString",
                "coordinates": [
                    [
                        4.900958777703879,
                        52.38513023982523,
                        44.783188875762846
                    ],
                    [
                        4.900958777703879,
                        52.38513023982523,
                        14.274188875762846
                    ]
                ]
            }
        },
        {
            "id": "3",
            "type": "Feature",
            "properties": {
                "date": "2013-07-09",
                "depth_to_base": 29.92,
                "ground_level_elevation": 1.3,
                "elevation_at_base": 29.92,
                "standard": "NEN5140",
                "location_source_id": "CPT000000204246",
                "color": "#0000CD"
            },
            "geometry": {
                "type": "LineString",
                "coordinates": [
                    [
                        4.902138255579713,
                        52.38432555418181,
                        44.26405876992969
                    ],
                    [
                        4.902138255579713,
                        52.38432555418181,
                        14.344058769929692
                    ]
                ]
            }
        },
        {
            "id": "4",
            "type": "Feature",
            "properties": {
                "date": "2011-05-12",
                "depth_to_base": 25.5,
                "ground_level_elevation": 1.44,
                "elevation_at_base": 25.5,
                "standard": "NEN5140",
                "location_source_id": "CPT000000205986",
                "color": "#0000CD"
            },
            "geometry": {
                "type": "LineString",
                "coordinates": [
                    [
                        4.902865513146616,
                        52.38402582463959,
                        44.40431115450375
                    ],
                    [
                        4.902865513146616,
                        52.38402582463959,
                        18.904311154503755
                    ]
                ]
            }
        },
        {
            "id": "5",
            "type": "Feature",
            "properties": {
                "date": "2022-08-24",
                "depth_to_base": 30.527,
                "ground_level_elevation": 2.26,
                "elevation_at_base": 30.527,
                "standard": "ISO22476D1",
                "location_source_id": "CPT000000198160",
                "color": "#DC143C"
            },
            "geometry": {
                "type": "LineString",
                "coordinates": [
                    [
                        4.900502701991077,
                        52.385170159496305,
                        45.22324604771112
                    ],
                    [
                        4.900502701991077,
                        52.385170159496305,
                        14.69624604771112
                    ]
                ]
            }
        },
        {
            "id": "6",
            "type": "Feature",
            "properties": {
                "date": "2022-08-24",
                "depth_to_base": 30.548,
                "ground_level_elevation": 0.77,
                "elevation_at_base": 30.548,
                "standard": "ISO22476D1",
                "location_source_id": "CPT000000198174",
                "color": "#DC143C"
            },
            "geometry": {
                "type": "LineString",
                "coordinates": [
                    [
                        4.9062931912547665,
                        52.38774487664228,
                        43.72803842335379
                    ],
                    [
                        4.9062931912547665,
                        52.38774487664228,
                        13.180038423353786
                    ]
                ]
            }
        },
        {
            "id": "7",
            "type": "Feature",
            "properties": {
                "date": "2008-07-01",
                "depth_to_base": 13.98,
                "ground_level_elevation": 0.86,
                "elevation_at_base": 13.98,
                "standard": "NEN5140",
                "location_source_id": "CPT000000037783",
                "color": "#0000CD"
            },
            "geometry": {
                "type": "LineString",
                "coordinates": [
                    [
                        4.90747622605274,
                        52.3868667229619,
                        43.81901528305467
                    ],
                    [
                        4.90747622605274,
                        52.3868667229619,
                        29.839015283054668
                    ]
                ]
            }
        },
        {
            "id": "8",
            "type": "Feature",
            "properties": {
                "date": "2022-09-21",
                "depth_to_base": 6.996,
                "ground_level_elevation": 0.81,
                "elevation_at_base": 6.996,
                "standard": "ISO22476D1",
                "location_source_id": "CPT000000198148",
                "color": "#DC143C"
            },
            "geometry": {
                "type": "LineString",
                "coordinates": [
                    [
                        4.906737324723817,
                        52.38727716197256,
                        43.76860547477108
                    ],
                    [
                        4.906737324723817,
                        52.38727716197256,
                        36.772605474771076
                    ]
                ]
            }
        },
        {
            "id": "9",
            "type": "Feature",
            "properties": {
                "date": "2022-08-24",
                "depth_to_base": 30.569,
                "ground_level_elevation": 1.5,
                "elevation_at_base": 30.569,
                "standard": "ISO22476D1",
                "location_source_id": "CPT000000198162",
                "color": "#DC143C"
            },
            "geometry": {
                "type": "LineString",
                "coordinates": [
                    [
                        4.901754625589397,
                        52.38530238293834,
                        44.46273856052558
                    ],
                    [
                        4.901754625589397,
                        52.38530238293834,
                        13.89373856052558
                    ]
                ]
            }
        },
        {
            "id": "10",
            "type": "Feature",
            "properties": {
                "date": "2022-08-24",
                "depth_to_base": 30.532,
                "ground_level_elevation": 0.49,
                "elevation_at_base": 30.532,
                "standard": "ISO22476D1",
                "location_source_id": "CPT000000198176",
                "color": "#DC143C"
            },
            "geometry": {
                "type": "LineString",
                "coordinates": [
                    [
                        4.906637532738627,
                        52.38702447267685,
                        43.44899882701109
                    ],
                    [
                        4.906637532738627,
                        52.38702447267685,
                        12.916998827011085
                    ]
                ]
            }
        },
        {
            "id": "11",
            "type": "Feature",
            "properties": {
                "date": "2013-07-09",
                "depth_to_base": 28.95,
                "ground_level_elevation": 0.86,
                "elevation_at_base": 28.95,
                "standard": "NEN5140",
                "location_source_id": "CPT000000206335",
                "color": "#0000CD"
            },
            "geometry": {
                "type": "LineString",
                "coordinates": [
                    [
                        4.902450902660428,
                        52.38477487068291,
                        43.82332827308027
                    ],
                    [
                        4.902450902660428,
                        52.38477487068291,
                        14.873328273080272
                    ]
                ]
            }
        },
        {
            "id": "12",
            "type": "Feature",
            "properties": {
                "date": "2017-06-21",
                "depth_to_base": 34.937,
                "ground_level_elevation": 1.4,
                "elevation_at_base": 34.937,
                "standard": "ISO22476D1",
                "location_source_id": "CPT000000203502",
                "color": "#DC143C"
            },
            "geometry": {
                "type": "LineString",
                "coordinates": [
                    [
                        4.903672489963198,
                        52.384078733741156,
                        44.364031895144166
                    ],
                    [
                        4.903672489963198,
                        52.384078733741156,
                        9.427031895144168
                    ]
                ]
            }
        },
        {
            "id": "13",
            "type": "Feature",
            "properties": {
                "date": "2009-04-15",
                "depth_to_base": 19.998,
                "ground_level_elevation": 0.39,
                "elevation_at_base": 19.998,
                "standard": "NEN5140",
                "location_source_id": "CPT000000060419",
                "color": "#0000CD"
            },
            "geometry": {
                "type": "LineString",
                "coordinates": [
                    [
                        4.903163593855419,
                        52.386832371699285,
                        43.35016163970501
                    ],
                    [
                        4.903163593855419,
                        52.386832371699285,
                        23.352161639705006
                    ]
                ]
            }
        },
        {
            "id": "14",
            "type": "Feature",
            "properties": {
                "date": "2011-05-12",
                "depth_to_base": 22.5,
                "ground_level_elevation": 1.53,
                "elevation_at_base": 22.5,
                "standard": "NEN5140",
                "location_source_id": "CPT000000205985",
                "color": "#0000CD"
            },
            "geometry": {
                "type": "LineString",
                "coordinates": [
                    [
                        4.903087886180049,
                        52.383837992130545,
                        44.494528069614304
                    ],
                    [
                        4.903087886180049,
                        52.383837992130545,
                        21.994528069614304
                    ]
                ]
            }
        },
        {
            "id": "15",
            "type": "Feature",
            "properties": {
                "date": "2022-08-24",
                "depth_to_base": 30.577,
                "ground_level_elevation": 1.33,
                "elevation_at_base": 30.577,
                "standard": "ISO22476D1",
                "location_source_id": "CPT000000198177",
                "color": "#DC143C"
            },
            "geometry": {
                "type": "LineString",
                "coordinates": [
                    [
                        4.906719389740629,
                        52.38669558560058,
                        44.289456911227425
                    ],
                    [
                        4.906719389740629,
                        52.38669558560058,
                        13.712456911227427
                    ]
                ]
            }
        },
        {
            "id": "16",
            "type": "Feature",
            "properties": {
                "date": "2022-08-24",
                "depth_to_base": 30.542,
                "ground_level_elevation": 3.07,
                "elevation_at_base": 30.542,
                "standard": "ISO22476D1",
                "location_source_id": "CPT000000198163",
                "color": "#DC143C"
            },
            "geometry": {
                "type": "LineString",
                "coordinates": [
                    [
                        4.90278138948505,
                        52.38571606578977,
                        46.031879018680335
                    ],
                    [
                        4.90278138948505,
                        52.38571606578977,
                        15.489879018680334
                    ]
                ]
            }
        },
        {
            "id": "17",
            "type": "Feature",
            "properties": {
                "date": "2022-08-24",
                "depth_to_base": 30.363,
                "ground_level_elevation": 1.77,
                "elevation_at_base": 30.363,
                "standard": "ISO22476D1",
                "location_source_id": "CPT000000198167",
                "color": "#DC143C"
            },
            "geometry": {
                "type": "LineString",
                "coordinates": [
                    [
                        4.902319363046325,
                        52.38544014061636,
                        44.732396175048414
                    ],
                    [
                        4.902319363046325,
                        52.38544014061636,
                        14.369396175048411
                    ]
                ]
            }
        },
        {
            "id": "18",
            "type": "Feature",
            "properties": {
                "date": "2022-08-24",
                "depth_to_base": 30.426,
                "ground_level_elevation": 0.72,
                "elevation_at_base": 30.426,
                "standard": "ISO22476D1",
                "location_source_id": "CPT000000198173",
                "color": "#DC143C"
            },
            "geometry": {
                "type": "LineString",
                "coordinates": [
                    [
                        4.906213304711392,
                        52.387878109364586,
                        43.67786522525421
                    ],
                    [
                        4.906213304711392,
                        52.387878109364586,
                        13.25186522525421
                    ]
                ]
            }
        },
        {
            "id": "19",
            "type": "Feature",
            "properties": {
                "date": "1998-10-07",
                "depth_to_base": 36.95,
                "ground_level_elevation": 1.83,
                "elevation_at_base": 36.95,
                "standard": "NEN5140",
                "location_source_id": "CPT000000251863",
                "color": "#0000CD"
            },
            "geometry": {
                "type": "LineString",
                "coordinates": [
                    [
                        4.907676098503989,
                        52.383326382269736,
                        44.79412384731016
                    ],
                    [
                        4.907676098503989,
                        52.383326382269736,
                        7.844123847310158
                    ]
                ]
            }
        },
        {
            "id": "20",
            "type": "Feature",
            "properties": {
                "date": "2013-07-09",
                "depth_to_base": 30.97,
                "ground_level_elevation": 1.64,
                "elevation_at_base": 30.97,
                "standard": "NEN5140",
                "location_source_id": "CPT000000204240",
                "color": "#0000CD"
            },
            "geometry": {
                "type": "LineString",
                "coordinates": [
                    [
                        4.902751873232615,
                        52.38380650952184,
                        44.60465796695505
                    ],
                    [
                        4.902751873232615,
                        52.38380650952184,
                        13.634657966955054
                    ]
                ]
            }
        },
        {
            "id": "21",
            "type": "Feature",
            "properties": {
                "date": "2015-02-23",
                "depth_to_base": 28.01,
                "ground_level_elevation": 0.88,
                "elevation_at_base": 28.01,
                "standard": "NEN5140",
                "location_source_id": "CPT000000206331",
                "color": "#0000CD"
            },
            "geometry": {
                "type": "LineString",
                "coordinates": [
                    [
                        4.906907847741602,
                        52.38624831355445,
                        43.84006043561696
                    ],
                    [
                        4.906907847741602,
                        52.38624831355445,
                        15.830060435616957
                    ]
                ]
            }
        },
        {
            "id": "22",
            "type": "Feature",
            "properties": {
                "date": "2022-08-24",
                "depth_to_base": 31.849,
                "ground_level_elevation": 2.37,
                "elevation_at_base": 31.849,
                "standard": "ISO22476D1",
                "location_source_id": "CPT000000198166",
                "color": "#DC143C"
            },
            "geometry": {
                "type": "LineString",
                "coordinates": [
                    [
                        4.905502010921391,
                        52.38616396261867,
                        45.330539525000816
                    ],
                    [
                        4.905502010921391,
                        52.38616396261867,
                        13.48153952500082
                    ]
                ]
            }
        },
        {
            "id": "23",
            "type": "Feature",
            "properties": {
                "date": "2022-08-24",
                "depth_to_base": 30.546,
                "ground_level_elevation": 1.89,
                "elevation_at_base": 30.546,
                "standard": "ISO22476D1",
                "location_source_id": "CPT000000198164",
                "color": "#DC143C"
            },
            "geometry": {
                "type": "LineString",
                "coordinates": [
                    [
                        4.903310580238557,
                        52.38555851752458,
                        44.851973974333625
                    ],
                    [
                        4.903310580238557,
                        52.38555851752458,
                        14.305973974333625
                    ]
                ]
            }
        },
        {
            "id": "24",
            "type": "Feature",
            "properties": {
                "date": "2022-09-21",
                "depth_to_base": 31.279,
                "ground_level_elevation": 0.78,
                "elevation_at_base": 31.279,
                "standard": "ISO22476D1",
                "location_source_id": "CPT000000198158",
                "color": "#DC143C"
            },
            "geometry": {
                "type": "LineString",
                "coordinates": [
                    [
                        4.906874487137024,
                        52.38681934599548,
                        43.73923727190217
                    ],
                    [
                        4.906874487137024,
                        52.38681934599548,
                        12.46023727190217
                    ]
                ]
            }
        },
        {
            "id": "25",
            "type": "Feature",
            "properties": {
                "date": "2011-05-12",
                "depth_to_base": 25.5,
                "ground_level_elevation": 0.96,
                "elevation_at_base": 25.5,
                "standard": "NEN5140",
                "location_source_id": "CPT000000205835",
                "color": "#0000CD"
            },
            "geometry": {
                "type": "LineString",
                "coordinates": [
                    [
                        4.9022429372571885,
                        52.384544563563075,
                        43.92371474470176
                    ],
                    [
                        4.9022429372571885,
                        52.384544563563075,
                        18.423714744701762
                    ]
                ]
            }
        },
        {
            "id": "26",
            "type": "Feature",
            "properties": {
                "date": "1998-10-09",
                "depth_to_base": 37.62,
                "ground_level_elevation": 2.36,
                "elevation_at_base": 37.62,
                "standard": "NEN5140",
                "location_source_id": "CPT000000251519",
                "color": "#0000CD"
            },
            "geometry": {
                "type": "LineString",
                "coordinates": [
                    [
                        4.9079245189682235,
                        52.383444227739716,
                        45.32388997387294
                    ],
                    [
                        4.9079245189682235,
                        52.383444227739716,
                        7.70388997387294
                    ]
                ]
            }
        },
        {
            "id": "27",
            "type": "Feature",
            "properties": {
                "date": "2015-02-23",
                "depth_to_base": 28.05,
                "ground_level_elevation": 0.77,
                "elevation_at_base": 28.05,
                "standard": "NEN5140",
                "location_source_id": "CPT000000206252",
                "color": "#0000CD"
            },
            "geometry": {
                "type": "LineString",
                "coordinates": [
                    [
                        4.906841926764364,
                        52.38608267277571,
                        43.73031837059346
                    ],
                    [
                        4.906841926764364,
                        52.38608267277571,
                        15.680318370593454
                    ]
                ]
            }
        },
        {
            "id": "28",
            "type": "Feature",
            "properties": {
                "date": "2022-09-21",
                "depth_to_base": 6.58,
                "ground_level_elevation": 0.53,
                "elevation_at_base": 6.58,
                "standard": "ISO22476D1",
                "location_source_id": "CPT000000198159",
                "color": "#DC143C"
            },
            "geometry": {
                "type": "LineString",
                "coordinates": [
                    [
                        4.906859701360317,
                        52.38682827372993,
                        43.48922802861835
                    ],
                    [
                        4.906859701360317,
                        52.38682827372993,
                        36.90922802861835
                    ]
                ]
            }
        },
        {
            "id": "29",
            "type": "Feature",
            "properties": {
                "date": "2022-08-24",
                "depth_to_base": 30.455,
                "ground_level_elevation": 1.74,
                "elevation_at_base": 30.455,
                "standard": "ISO22476D1",
                "location_source_id": "CPT000000198165",
                "color": "#DC143C"
            },
            "geometry": {
                "type": "LineString",
                "coordinates": [
                    [
                        4.901202261151852,
                        52.3848803925438,
                        44.703489635693714
                    ],
                    [
                        4.901202261151852,
                        52.3848803925438,
                        14.248489635693712
                    ]
                ]
            }
        },
        {
            "id": "30",
            "type": "Feature",
            "properties": {
                "date": "2013-07-09",
                "depth_to_base": 29.96,
                "ground_level_elevation": 1.56,
                "elevation_at_base": 29.96,
                "standard": "NEN5140",
                "location_source_id": "CPT000000206209",
                "color": "#0000CD"
            },
            "geometry": {
                "type": "LineString",
                "coordinates": [
                    [
                        4.902567190239912,
                        52.384013010275524,
                        44.52440457683535
                    ],
                    [
                        4.902567190239912,
                        52.384013010275524,
                        14.564404576835347
                    ]
                ]
            }
        },
        {
            "id": "31",
            "type": "Feature",
            "properties": {
                "date": "2013-07-09",
                "depth_to_base": 29.97,
                "ground_level_elevation": 1.65,
                "elevation_at_base": 29.97,
                "standard": "NEN5140",
                "location_source_id": "CPT000000206221",
                "color": "#0000CD"
            },
            "geometry": {
                "type": "LineString",
                "coordinates": [
                    [
                        4.90182491217458,
                        52.38398067096628,
                        44.61463764733013
                    ],
                    [
                        4.90182491217458,
                        52.38398067096628,
                        14.644637647330129
                    ]
                ]
            }
        },
        {
            "id": "32",
            "type": "Feature",
            "properties": {
                "date": "2017-06-21",
                "depth_to_base": 34.975,
                "ground_level_elevation": 0.51,
                "elevation_at_base": 34.975,
                "standard": "ISO22476D1",
                "location_source_id": "CPT000000202286",
                "color": "#DC143C"
            },
            "geometry": {
                "type": "LineString",
                "coordinates": [
                    [
                        4.905500579573105,
                        52.3849437879356,
                        43.4723148632809
                    ],
                    [
                        4.905500579573105,
                        52.3849437879356,
                        8.497314863280899
                    ]
                ]
            }
        },
        {
            "id": "33",
            "type": "Feature",
            "properties": {
                "date": "2014-02-18",
                "depth_to_base": 27.68,
                "ground_level_elevation": -2.74,
                "elevation_at_base": 27.68,
                "standard": "NEN5140",
                "location_source_id": "CPT000000061389",
                "color": "#0000CD"
            },
            "geometry": {
                "type": "LineString",
                "coordinates": [
                    [
                        4.907352834879427,
                        52.3862833714714,
                        40.21989655307416
                    ],
                    [
                        4.907352834879427,
                        52.3862833714714,
                        12.539896553074158
                    ]
                ]
            }
        },
        {
            "id": "34",
            "type": "Feature",
            "properties": {
                "date": "2013-07-09",
                "depth_to_base": 29.0,
                "ground_level_elevation": 0.7,
                "elevation_at_base": 29.0,
                "standard": "NEN5140",
                "location_source_id": "CPT000000204225",
                "color": "#0000CD"
            },
            "geometry": {
                "type": "LineString",
                "coordinates": [
                    [
                        4.9026911259829955,
                        52.38472830865439,
                        43.663335377874525
                    ],
                    [
                        4.9026911259829955,
                        52.38472830865439,
                        14.663335377874521
                    ]
                ]
            }
        },
        {
            "id": "35",
            "type": "Feature",
            "properties": {
                "date": "2014-02-17",
                "depth_to_base": 32.1,
                "ground_level_elevation": 0.89,
                "elevation_at_base": 32.1,
                "standard": "NEN5140",
                "location_source_id": "CPT000000061388",
                "color": "#0000CD"
            },
            "geometry": {
                "type": "LineString",
                "coordinates": [
                    [
                        4.907479139598204,
                        52.38609514161409,
                        43.85013879400199
                    ],
                    [
                        4.907479139598204,
                        52.38609514161409,
                        11.750138794001991
                    ]
                ]
            }
        },
        {
            "id": "36",
            "type": "Feature",
            "properties": {
                "date": "2017-06-21",
                "depth_to_base": 34.958,
                "ground_level_elevation": 0.63,
                "elevation_at_base": 34.958,
                "standard": "ISO22476D1",
                "location_source_id": "CPT000000202087",
                "color": "#DC143C"
            },
            "geometry": {
                "type": "LineString",
                "coordinates": [
                    [
                        4.905008200805845,
                        52.38468923038918,
                        43.592809059983686
                    ],
                    [
                        4.905008200805845,
                        52.38468923038918,
                        8.634809059983688
                    ]
                ]
            }
        },
        {
            "id": "37",
            "type": "Feature",
            "properties": {
                "date": "2017-06-21",
                "depth_to_base": 34.981,
                "ground_level_elevation": 0.85,
                "elevation_at_base": 34.981,
                "standard": "ISO22476D1",
                "location_source_id": "CPT000000202327",
                "color": "#DC143C"
            },
            "geometry": {
                "type": "LineString",
                "coordinates": [
                    [
                        4.9061079033809945,
                        52.385218493358735,
                        43.81176204723433
                    ],
                    [
                        4.9061079033809945,
                        52.385218493358735,
                        8.83076204723433
                    ]
                ]
            }
        },
        {
            "id": "38",
            "type": "Feature",
            "properties": {
                "date": "2013-07-09",
                "depth_to_base": 29.9,
                "ground_level_elevation": 1.47,
                "elevation_at_base": 29.9,
                "standard": "NEN5140",
                "location_source_id": "CPT000000204395",
                "color": "#0000CD"
            },
            "geometry": {
                "type": "LineString",
                "coordinates": [
                    [
                        4.902050909875611,
                        52.384173394280175,
                        44.43430142264448
                    ],
                    [
                        4.902050909875611,
                        52.384173394280175,
                        14.534301422644482
                    ]
                ]
            }
        },
        {
            "id": "39",
            "type": "Feature",
            "properties": {
                "date": "2013-07-09",
                "depth_to_base": 29.94,
                "ground_level_elevation": 1.09,
                "elevation_at_base": 29.94,
                "standard": "NEN5140",
                "location_source_id": "CPT000000206353",
                "color": "#0000CD"
            },
            "geometry": {
                "type": "LineString",
                "coordinates": [
                    [
                        4.902194625517233,
                        52.38450311223289,
                        44.05378702631843
                    ],
                    [
                        4.902194625517233,
                        52.38450311223289,
                        14.113787026318427
                    ]
                ]
            }
        },
        {
            "id": "40",
            "type": "Feature",
            "properties": {
                "date": "2013-07-09",
                "depth_to_base": 30.93,
                "ground_level_elevation": 1.63,
                "elevation_at_base": 30.93,
                "standard": "NEN5140",
                "location_source_id": "CPT000000206226",
                "color": "#0000CD"
            },
            "geometry": {
                "type": "LineString",
                "coordinates": [
                    [
                        4.90286860439036,
                        52.38402520814115,
                        44.594311274001804
                    ],
                    [
                        4.90286860439036,
                        52.38402520814115,
                        13.6643112740018
                    ]
                ]
            }
        },
        {
            "id": "41",
            "type": "Feature",
            "properties": {
                "date": "2013-07-09",
                "depth_to_base": 29.95,
                "ground_level_elevation": 1.65,
                "elevation_at_base": 29.95,
                "standard": "NEN5140",
                "location_source_id": "CPT000000204357",
                "color": "#0000CD"
            },
            "geometry": {
                "type": "LineString",
                "coordinates": [
                    [
                        4.901531255284364,
                        52.384601236014156,
                        44.61381152739537
                    ],
                    [
                        4.901531255284364,
                        52.384601236014156,
                        14.66381152739537
                    ]
                ]
            }
        },
        {
            "id": "42",
            "type": "Feature",
            "properties": {
                "date": "2013-07-09",
                "depth_to_base": 28.99,
                "ground_level_elevation": 1.06,
                "elevation_at_base": 28.99,
                "standard": "NEN5140",
                "location_source_id": "CPT000000204382",
                "color": "#0000CD"
            },
            "geometry": {
                "type": "LineString",
                "coordinates": [
                    [
                        4.90243521371291,
                        52.38461114056395,
                        44.023569793938044
                    ],
                    [
                        4.90243521371291,
                        52.38461114056395,
                        15.033569793938042
                    ]
                ]
            }
        },
        {
            "id": "43",
            "type": "Feature",
            "properties": {
                "date": "2014-02-17",
                "depth_to_base": 31.74,
                "ground_level_elevation": 0.82,
                "elevation_at_base": 31.74,
                "standard": "NEN5140",
                "location_source_id": "CPT000000061549",
                "color": "#0000CD"
            },
            "geometry": {
                "type": "LineString",
                "coordinates": [
                    [
                        4.907530368965077,
                        52.386274833206876,
                        43.77986398144563
                    ],
                    [
                        4.907530368965077,
                        52.386274833206876,
                        12.039863981445631
                    ]
                ]
            }
        },
        {
            "id": "44",
            "type": "Feature",
            "properties": {
                "date": "2017-06-21",
                "depth_to_base": 34.985,
                "ground_level_elevation": 1.06,
                "elevation_at_base": 34.985,
                "standard": "ISO22476D1",
                "location_source_id": "CPT000000202240",
                "color": "#DC143C"
            },
            "geometry": {
                "type": "LineString",
                "coordinates": [
                    [
                        4.90639603129681,
                        52.385522099038425,
                        44.02124738364877
                    ],
                    [
                        4.90639603129681,
                        52.385522099038425,
                        9.036247383648771
                    ]
                ]
            }
        },
        {
            "id": "45",
            "type": "Feature",
            "properties": {
                "date": "2011-05-12",
                "depth_to_base": 25.5,
                "ground_level_elevation": 1.28,
                "elevation_at_base": 25.5,
                "standard": "NEN5140",
                "location_source_id": "CPT000000205856",
                "color": "#0000CD"
            },
            "geometry": {
                "type": "LineString",
                "coordinates": [
                    [
                        4.901702348162721,
                        52.38428170584363,
                        44.24423184868903
                    ],
                    [
                        4.901702348162721,
                        52.38428170584363,
                        18.744231848689033
                    ]
                ]
            }
        },
        {
            "id": "46",
            "type": "Feature",
            "properties": {
                "date": "2014-02-17",
                "depth_to_base": 32.05,
                "ground_level_elevation": 1.34,
                "elevation_at_base": 32.05,
                "standard": "NEN5140",
                "location_source_id": "CPT000000061398",
                "color": "#0000CD"
            },
            "geometry": {
                "type": "LineString",
                "coordinates": [
                    [
                        4.9068058628366344,
                        52.386089716670654,
                        44.300317247965936
                    ],
                    [
                        4.9068058628366344,
                        52.386089716670654,
                        12.250317247965935
                    ]
                ]
            }
        },
        {
            "id": "47",
            "type": "Feature",
            "properties": {
                "date": "2013-07-09",
                "depth_to_base": 28.96,
                "ground_level_elevation": 0.81,
                "elevation_at_base": 28.96,
                "standard": "NEN5140",
                "location_source_id": "CPT000000206344",
                "color": "#0000CD"
            },
            "geometry": {
                "type": "LineString",
                "coordinates": [
                    [
                        4.902124848606584,
                        52.38469174783677,
                        43.77353092956083
                    ],
                    [
                        4.902124848606584,
                        52.38469174783677,
                        14.813530929560823
                    ]
                ]
            }
        },
        {
            "id": "48",
            "type": "Feature",
            "properties": {
                "date": "1998-11-02",
                "depth_to_base": 37.67,
                "ground_level_elevation": 1.81,
                "elevation_at_base": 37.67,
                "standard": "NEN5140",
                "location_source_id": "CPT000000251552",
                "color": "#0000CD"
            },
            "geometry": {
                "type": "LineString",
                "coordinates": [
                    [
                        4.9076016900583905,
                        52.38341595793651,
                        44.77401191636442
                    ],
                    [
                        4.9076016900583905,
                        52.38341595793651,
                        7.104011916364421
                    ]
                ]
            }
        },
        {
            "id": "49",
            "type": "Feature",
            "properties": {
                "date": "2013-07-09",
                "depth_to_base": 30.94,
                "ground_level_elevation": 1.66,
                "elevation_at_base": 30.94,
                "standard": "NEN5140",
                "location_source_id": "CPT000000204208",
                "color": "#0000CD"
            },
            "geometry": {
                "type": "LineString",
                "coordinates": [
                    [
                        4.902459624621591,
                        52.38386966575396,
                        44.62463955161988
                    ],
                    [
                        4.902459624621591,
                        52.38386966575396,
                        13.684639551619881
                    ]
                ]
            }
        },
        {
            "id": "50",
            "type": "Feature",
            "properties": {
                "date": "2011-05-12",
                "depth_to_base": 25.5,
                "ground_level_elevation": 1.3,
                "elevation_at_base": 25.5,
                "standard": "NEN5140",
                "location_source_id": "CPT000000205857",
                "color": "#0000CD"
            },
            "geometry": {
                "type": "LineString",
                "coordinates": [
                    [
                        4.901626646440656,
                        52.384488112519456,
                        44.26395156610218
                    ],
                    [
                        4.901626646440656,
                        52.384488112519456,
                        18.763951566102183
                    ]
                ]
            }
        },
        {
            "id": "51",
            "type": "Feature",
            "properties": {
                "date": "2017-06-21",
                "depth_to_base": 34.986,
                "ground_level_elevation": 2.2,
                "elevation_at_base": 34.986,
                "standard": "ISO22476D1",
                "location_source_id": "CPT000000202241",
                "color": "#DC143C"
            },
            "geometry": {
                "type": "LineString",
                "coordinates": [
                    [
                        4.906634615115627,
                        52.385979102597226,
                        45.16052168752054
                    ],
                    [
                        4.906634615115627,
                        52.385979102597226,
                        10.174521687520546
                    ]
                ]
            }
        },
        {
            "id": "52",
            "type": "Feature",
            "properties": {
                "date": "2014-02-17",
                "depth_to_base": 32.31,
                "ground_level_elevation": 1.4,
                "elevation_at_base": 32.31,
                "standard": "NEN5140",
                "location_source_id": "CPT000000061548",
                "color": "#0000CD"
            },
            "geometry": {
                "type": "LineString",
                "coordinates": [
                    [
                        4.9068733544554215,
                        52.386273069584576,
                        44.36003312648271
                    ],
                    [
                        4.9068733544554215,
                        52.386273069584576,
                        12.05003312648271
                    ]
                ]
            }
        },
        {
            "id": "53",
            "type": "Feature",
            "properties": {
                "date": "2011-05-12",
                "depth_to_base": 25.52,
                "ground_level_elevation": 1.19,
                "elevation_at_base": 25.52,
                "standard": "NEN5140",
                "location_source_id": "CPT000000205937",
                "color": "#0000CD"
            },
            "geometry": {
                "type": "LineString",
                "coordinates": [
                    [
                        4.901965347283788,
                        52.38440861128243,
                        44.15398173369381
                    ],
                    [
                        4.901965347283788,
                        52.38440861128243,
                        18.633981733693815
                    ]
                ]
            }
        },
        {
            "id": "54",
            "type": "Feature",
            "properties": {
                "date": "1998-11-02",
                "depth_to_base": 39.645,
                "ground_level_elevation": 1.44,
                "elevation_at_base": 39.645,
                "standard": "NEN5140",
                "location_source_id": "CPT000000251774",
                "color": "#0000CD"
            },
            "geometry": {
                "type": "LineString",
                "coordinates": [
                    [
                        4.907250849016059,
                        52.38326174604006,
                        44.4043243138251
                    ],
                    [
                        4.907250849016059,
                        52.38326174604006,
                        4.759324313825097
                    ]
                ]
            }
        },
        {
            "id": "55",
            "type": "Feature",
            "properties": {
                "date": "2011-05-12",
                "depth_to_base": 25.5,
                "ground_level_elevation": 1.65,
                "elevation_at_base": 25.5,
                "standard": "NEN5140",
                "location_source_id": "CPT000000205873",
                "color": "#0000CD"
            },
            "geometry": {
                "type": "LineString",
                "coordinates": [
                    [
                        4.90265792399102,
                        52.38420472951393,
                        44.61410358493237
                    ],
                    [
                        4.90265792399102,
                        52.38420472951393,
                        19.114103584932373
                    ]
                ]
            }
        },
        {
            "id": "56",
            "type": "Feature",
            "properties": {
                "date": "2013-07-09",
                "depth_to_base": 29.89,
                "ground_level_elevation": 1.6,
                "elevation_at_base": 29.89,
                "standard": "NEN5140",
                "location_source_id": "CPT000000204199",
                "color": "#0000CD"
            },
            "geometry": {
                "type": "LineString",
                "coordinates": [
                    [
                        4.902284770849421,
                        52.383983093770134,
                        44.56451881346214
                    ],
                    [
                        4.902284770849421,
                        52.383983093770134,
                        14.674518813462143
                    ]
                ]
            }
        },
        {
            "id": "57",
            "type": "Feature",
            "properties": {
                "date": "1998-12-02",
                "depth_to_base": 36.995,
                "ground_level_elevation": 1.08,
                "elevation_at_base": 36.995,
                "standard": "NEN5140",
                "location_source_id": "CPT000000251617",
                "color": "#0000CD"
            },
            "geometry": {
                "type": "LineString",
                "coordinates": [
                    [
                        4.908040171953886,
                        52.383615461814905,
                        44.04361142968794
                    ],
                    [
                        4.908040171953886,
                        52.383615461814905,
                        7.048611429687945
                    ]
                ]
            }
        },
        {
            "id": "58",
            "type": "Feature",
            "properties": {
                "date": "2014-02-18",
                "depth_to_base": 27.8,
                "ground_level_elevation": -2.69,
                "elevation_at_base": 27.8,
                "standard": "NEN5140",
                "location_source_id": "CPT000000061397",
                "color": "#0000CD"
            },
            "geometry": {
                "type": "LineString",
                "coordinates": [
                    [
                        4.907037435092135,
                        52.38608265656947,
                        40.27026887115646
                    ],
                    [
                        4.907037435092135,
                        52.38608265656947,
                        12.470268871156456
                    ]
                ]
            }
        },
        {
            "id": "59",
            "type": "Feature",
            "properties": {
                "date": "2015-02-23",
                "depth_to_base": 28.02,
                "ground_level_elevation": 0.96,
                "elevation_at_base": 28.02,
                "standard": "NEN5140",
                "location_source_id": "CPT000000206148",
                "color": "#0000CD"
            },
            "geometry": {
                "type": "LineString",
                "coordinates": [
                    [
                        4.906922074208569,
                        52.38631811569865,
                        43.91995516908514
                    ],
                    [
                        4.906922074208569,
                        52.38631811569865,
                        15.899955169085143
                    ]
                ]
            }
        },
        {
            "id": "60",
            "type": "Feature",
            "properties": {
                "date": "2013-07-09",
                "depth_to_base": 30.32,
                "ground_level_elevation": 1.6,
                "elevation_at_base": 30.32,
                "standard": "NEN5140",
                "location_source_id": "CPT000000204388",
                "color": "#0000CD"
            },
            "geometry": {
                "type": "LineString",
                "coordinates": [
                    [
                        4.902331086809186,
                        52.383495161608266,
                        44.565215124351916
                    ],
                    [
                        4.902331086809186,
                        52.383495161608266,
                        14.245215124351915
                    ]
                ]
            }
        },
        {
            "id": "61",
            "type": "Feature",
            "properties": {
                "date": "2013-07-09",
                "depth_to_base": 30.81,
                "ground_level_elevation": 1.57,
                "elevation_at_base": 30.81,
                "standard": "NEN5140",
                "location_source_id": "CPT000000206206",
                "color": "#0000CD"
            },
            "geometry": {
                "type": "LineString",
                "coordinates": [
                    [
                        4.903020698618882,
                        52.38381686604933,
                        44.53457557543372
                    ],
                    [
                        4.903020698618882,
                        52.38381686604933,
                        13.724575575433722
                    ]
                ]
            }
        },
        {
            "id": "62",
            "type": "Feature",
            "properties": {
                "date": "2013-07-09",
                "depth_to_base": 30.9,
                "ground_level_elevation": 1.64,
                "elevation_at_base": 30.9,
                "standard": "NEN5140",
                "location_source_id": "CPT000000204377",
                "color": "#0000CD"
            },
            "geometry": {
                "type": "LineString",
                "coordinates": [
                    [
                        4.902666837656999,
                        52.38367134625602,
                        44.60487543239443
                    ],
                    [
                        4.902666837656999,
                        52.38367134625602,
                        13.70487543239443
                    ]
                ]
            }
        },
        {
            "id": "63",
            "type": "Feature",
            "properties": {
                "date": "2013-07-09",
                "depth_to_base": 29.97,
                "ground_level_elevation": 1.46,
                "elevation_at_base": 29.97,
                "standard": "NEN5140",
                "location_source_id": "CPT000000204363",
                "color": "#0000CD"
            },
            "geometry": {
                "type": "LineString",
                "coordinates": [
                    [
                        4.902408183837117,
                        52.384329355588356,
                        44.42398545206241
                    ],
                    [
                        4.902408183837117,
                        52.384329355588356,
                        14.453985452062412
                    ]
                ]
            }
        },
        {
            "id": "64",
            "type": "Feature",
            "properties": {
                "date": "2014-02-18",
                "depth_to_base": 29.25,
                "ground_level_elevation": -2.87,
                "elevation_at_base": 29.25,
                "standard": "NEN5140",
                "location_source_id": "CPT000000061390",
                "color": "#0000CD"
            },
            "geometry": {
                "type": "LineString",
                "coordinates": [
                    [
                        4.907320374028832,
                        52.386093240242204,
                        40.090181782419705
                    ],
                    [
                        4.907320374028832,
                        52.386093240242204,
                        10.840181782419705
                    ]
                ]
            }
        },
        {
            "id": "65",
            "type": "Feature",
            "properties": {
                "date": "2013-07-09",
                "depth_to_base": 29.98,
                "ground_level_elevation": 1.62,
                "elevation_at_base": 29.98,
                "standard": "NEN5140",
                "location_source_id": "CPT000000206238",
                "color": "#0000CD"
            },
            "geometry": {
                "type": "LineString",
                "coordinates": [
                    [
                        4.901864144945203,
                        52.38455622398549,
                        44.58379308080702
                    ],
                    [
                        4.901864144945203,
                        52.38455622398549,
                        14.603793080807023
                    ]
                ]
            }
        },
        {
            "id": "66",
            "type": "Feature",
            "properties": {
                "date": "2022-08-24",
                "depth_to_base": 30.459,
                "ground_level_elevation": 1.77,
                "elevation_at_base": 30.459,
                "standard": "ISO22476D1",
                "location_source_id": "CPT000000198168",
                "color": "#DC143C"
            },
            "geometry": {
                "type": "LineString",
                "coordinates": [
                    [
                        4.902812474241995,
                        52.3851699209591,
                        44.73266386009075
                    ],
                    [
                        4.902812474241995,
                        52.3851699209591,
                        14.27366386009075
                    ]
                ]
            }
        },
        {
            "id": "67",
            "type": "Feature",
            "properties": {
                "date": "2022-09-21",
                "depth_to_base": 30.952,
                "ground_level_elevation": 0.98,
                "elevation_at_base": 30.952,
                "standard": "ISO22476D1",
                "location_source_id": "CPT000000198154",
                "color": "#DC143C"
            },
            "geometry": {
                "type": "LineString",
                "coordinates": [
                    [
                        4.906424284640932,
                        52.38769831328963,
                        43.93807263126616
                    ],
                    [
                        4.906424284640932,
                        52.38769831328963,
                        12.986072631266161
                    ]
                ]
            }
        },
        {
            "id": "68",
            "type": "Feature",
            "properties": {
                "date": "2013-07-09",
                "depth_to_base": 29.94,
                "ground_level_elevation": 1.57,
                "elevation_at_base": 29.94,
                "standard": "NEN5140",
                "location_source_id": "CPT000000204273",
                "color": "#0000CD"
            },
            "geometry": {
                "type": "LineString",
                "coordinates": [
                    [
                        4.902588510832639,
                        52.38417217971302,
                        44.53416824602897
                    ],
                    [
                        4.902588510832639,
                        52.38417217971302,
                        14.594168246028968
                    ]
                ]
            }
        },
        {
            "id": "69",
            "type": "Feature",
            "properties": {
                "date": "2022-09-21",
                "depth_to_base": 6.998,
                "ground_level_elevation": 0.65,
                "elevation_at_base": 6.998,
                "standard": "ISO22476D1",
                "location_source_id": "CPT000000198155",
                "color": "#DC143C"
            },
            "geometry": {
                "type": "LineString",
                "coordinates": [
                    [
                        4.9064389733476155,
                        52.38769837290607,
                        43.60806879651815
                    ],
                    [
                        4.9064389733476155,
                        52.38769837290607,
                        36.61006879651815
                    ]
                ]
            }
        },
        {
            "id": "70",
            "type": "Feature",
            "properties": {
                "date": "2022-08-24",
                "depth_to_base": 30.557,
                "ground_level_elevation": 1.72,
                "elevation_at_base": 30.557,
                "standard": "ISO22476D1",
                "location_source_id": "CPT000000198169",
                "color": "#DC143C"
            },
            "geometry": {
                "type": "LineString",
                "coordinates": [
                    [
                        4.902685149036417,
                        52.38528866689027,
                        44.68252363650208
                    ],
                    [
                        4.902685149036417,
                        52.38528866689027,
                        14.125523636502084
                    ]
                ]
            }
        },
        {
            "id": "71",
            "type": "Feature",
            "properties": {
                "date": "2022-09-21",
                "depth_to_base": 6.599,
                "ground_level_elevation": 0.77,
                "elevation_at_base": 6.599,
                "standard": "ISO22476D1",
                "location_source_id": "CPT000000198157",
                "color": "#DC143C"
            },
            "geometry": {
                "type": "LineString",
                "coordinates": [
                    [
                        4.906678862650091,
                        52.38724996175736,
                        43.72865997413486
                    ],
                    [
                        4.906678862650091,
                        52.38724996175736,
                        37.12965997413485
                    ]
                ]
            }
        },
        {
            "id": "72",
            "type": "Feature",
            "properties": {
                "date": "2013-07-09",
                "depth_to_base": 28.87,
                "ground_level_elevation": 1.47,
                "elevation_at_base": 28.87,
                "standard": "NEN5140",
                "location_source_id": "CPT000000206248",
                "color": "#0000CD"
            },
            "geometry": {
                "type": "LineString",
                "coordinates": [
                    [
                        4.901879073653566,
                        52.384762372992064,
                        44.4334903438818
                    ],
                    [
                        4.901879073653566,
                        52.384762372992064,
                        15.5634903438818
                    ]
                ]
            }
        },
        {
            "id": "73",
            "type": "Feature",
            "properties": {
                "date": "2013-07-09",
                "depth_to_base": 29.9,
                "ground_level_elevation": 1.63,
                "elevation_at_base": 29.9,
                "standard": "NEN5140",
                "location_source_id": "CPT000000206260",
                "color": "#0000CD"
            },
            "geometry": {
                "type": "LineString",
                "coordinates": [
                    [
                        4.9019970453354835,
                        52.384062265479606,
                        44.59447613136963
                    ],
                    [
                        4.9019970453354835,
                        52.384062265479606,
                        14.69447613136963
                    ]
                ]
            }
        },
        {
            "id": "74",
            "type": "Feature",
            "properties": {
                "date": "2013-07-09",
                "depth_to_base": 31.81,
                "ground_level_elevation": 1.48,
                "elevation_at_base": 31.81,
                "standard": "NEN5140",
                "location_source_id": "CPT000000204310",
                "color": "#0000CD"
            },
            "geometry": {
                "type": "LineString",
                "coordinates": [
                    [
                        4.902349911746606,
                        52.38415107083293,
                        44.44425876134095
                    ],
                    [
                        4.902349911746606,
                        52.38415107083293,
                        12.634258761340952
                    ]
                ]
            }
        },
        {
            "id": "75",
            "type": "Feature",
            "properties": {
                "date": "2017-06-21",
                "depth_to_base": 34.945,
                "ground_level_elevation": 1.41,
                "elevation_at_base": 34.945,
                "standard": "ISO22476D1",
                "location_source_id": "CPT000000203457",
                "color": "#DC143C"
            },
            "geometry": {
                "type": "LineString",
                "coordinates": [
                    [
                        4.90329320422445,
                        52.383907227487654,
                        44.374376085552605
                    ],
                    [
                        4.90329320422445,
                        52.383907227487654,
                        9.429376085552605
                    ]
                ]
            }
        },
        {
            "id": "76",
            "type": "Feature",
            "properties": {
                "date": "2014-02-18",
                "depth_to_base": 27.9,
                "ground_level_elevation": -2.65,
                "elevation_at_base": 27.9,
                "standard": "NEN5140",
                "location_source_id": "CPT000000061518",
                "color": "#0000CD"
            },
            "geometry": {
                "type": "LineString",
                "coordinates": [
                    [
                        4.907121011724728,
                        52.386272815307166,
                        40.30997070745591
                    ],
                    [
                        4.907121011724728,
                        52.386272815307166,
                        12.409970707455912
                    ]
                ]
            }
        },
        {
            "id": "77",
            "type": "Feature",
            "properties": {
                "date": "2022-09-21",
                "depth_to_base": 31.301,
                "ground_level_elevation": 0.75,
                "elevation_at_base": 31.301,
                "standard": "ISO22476D1",
                "location_source_id": "CPT000000198156",
                "color": "#DC143C"
            },
            "geometry": {
                "type": "LineString",
                "coordinates": [
                    [
                        4.906649388128671,
                        52.387258829878064,
                        43.70865456897792
                    ],
                    [
                        4.906649388128671,
                        52.387258829878064,
                        12.407654568977922
                    ]
                ]
            }
        },
        {
            "id": "78",
            "type": "Feature",
            "properties": {
                "date": "2015-02-23",
                "depth_to_base": 28.17,
                "ground_level_elevation": 0.75,
                "elevation_at_base": 28.17,
                "standard": "NEN5140",
                "location_source_id": "CPT000000205973",
                "color": "#0000CD"
            },
            "geometry": {
                "type": "LineString",
                "coordinates": [
                    [
                        4.906885504004314,
                        52.38616850215849,
                        43.710182333895126
                    ],
                    [
                        4.906885504004314,
                        52.38616850215849,
                        15.540182333895125
                    ]
                ]
            }
        },
        {
            "id": "79",
            "type": "Feature",
            "properties": {
                "date": "2015-02-23",
                "depth_to_base": 29.54,
                "ground_level_elevation": 0.69,
                "elevation_at_base": 29.54,
                "standard": "NEN5140",
                "location_source_id": "CPT000000206113",
                "color": "#0000CD"
            },
            "geometry": {
                "type": "LineString",
                "coordinates": [
                    [
                        4.906789828622134,
                        52.38599698857018,
                        43.65045634435813
                    ],
                    [
                        4.906789828622134,
                        52.38599698857018,
                        14.110456344358138
                    ]
                ]
            }
        },
        {
            "id": "80",
            "type": "Feature",
            "properties": {
                "date": "2013-07-09",
                "depth_to_base": 30.95,
                "ground_level_elevation": 1.6,
                "elevation_at_base": 30.95,
                "standard": "NEN5140",
                "location_source_id": "CPT000000205817",
                "color": "#0000CD"
            },
            "geometry": {
                "type": "LineString",
                "coordinates": [
                    [
                        4.9025991651796055,
                        52.383613997534766,
                        44.564975601417665
                    ],
                    [
                        4.9025991651796055,
                        52.383613997534766,
                        13.614975601417665
                    ]
                ]
            }
        },
        {
            "id": "81",
            "type": "Feature",
            "properties": {
                "date": "2013-07-09",
                "depth_to_base": 3.44,
                "ground_level_elevation": 1.62,
                "elevation_at_base": 3.44,
                "standard": "NEN5140",
                "location_source_id": "CPT000000204248",
                "color": "#0000CD"
            },
            "geometry": {
                "type": "LineString",
                "coordinates": [
                    [
                        4.902281428118679,
                        52.38397984451465,
                        44.584524365778826
                    ],
                    [
                        4.902281428118679,
                        52.38397984451465,
                        41.14452436577883
                    ]
                ]
            }
        },
        {
            "id": "82",
            "type": "Feature",
            "properties": {
                "date": "2013-07-09",
                "depth_to_base": 30.46,
                "ground_level_elevation": 1.64,
                "elevation_at_base": 30.46,
                "standard": "NEN5140",
                "location_source_id": "CPT000000204513",
                "color": "#0000CD"
            },
            "geometry": {
                "type": "LineString",
                "coordinates": [
                    [
                        4.902178823039589,
                        52.38357111337445,
                        44.60514303631993
                    ],
                    [
                        4.902178823039589,
                        52.38357111337445,
                        14.14514303631993
                    ]
                ]
            }
        },
        {
            "id": "83",
            "type": "Feature",
            "properties": {
                "date": "2015-02-23",
                "depth_to_base": 29.57,
                "ground_level_elevation": 0.63,
                "elevation_at_base": 29.57,
                "standard": "NEN5140",
                "location_source_id": "CPT000000206112",
                "color": "#0000CD"
            },
            "geometry": {
                "type": "LineString",
                "coordinates": [
                    [
                        4.906749524628783,
                        52.385934450539146,
                        43.59055761694234
                    ],
                    [
                        4.906749524628783,
                        52.385934450539146,
                        14.020557616942337
                    ]
                ]
            }
        },
        {
            "id": "84",
            "type": "Feature",
            "properties": {
                "date": "1999-01-12",
                "depth_to_base": 69.68,
                "ground_level_elevation": 2.51,
                "elevation_at_base": 69.68,
                "standard": "NEN5140",
                "location_source_id": "CPT000000251670",
                "color": "#0000CD"
            },
            "geometry": {
                "type": "LineString",
                "coordinates": [
                    [
                        4.907849916495118,
                        52.383551778159436,
                        45.47375187663228
                    ],
                    [
                        4.907849916495118,
                        52.383551778159436,
                        -24.206248123367722
                    ]
                ]
            }
        },
        {
            "id": "85",
            "type": "Feature",
            "properties": {
                "date": "2013-07-09",
                "depth_to_base": 29.97,
                "ground_level_elevation": 1.54,
                "elevation_at_base": 29.97,
                "standard": "NEN5140",
                "location_source_id": "CPT000000206072",
                "color": "#0000CD"
            },
            "geometry": {
                "type": "LineString",
                "coordinates": [
                    [
                        4.901820877745367,
                        52.38437602316009,
                        44.50406529792482
                    ],
                    [
                        4.901820877745367,
                        52.38437602316009,
                        14.534065297924819
                    ]
                ]
            }
        },
        {
            "id": "86",
            "type": "Feature",
            "properties": {
                "date": "2017-06-21",
                "depth_to_base": 34.983,
                "ground_level_elevation": 1.72,
                "elevation_at_base": 34.983,
                "standard": "ISO22476D1",
                "location_source_id": "CPT000000203491",
                "color": "#DC143C"
            },
            "geometry": {
                "type": "LineString",
                "coordinates": [
                    [
                        4.904725509811325,
                        52.384562251543805,
                        44.68306478808814
                    ],
                    [
                        4.904725509811325,
                        52.384562251543805,
                        9.700064788088142
                    ]
                ]
            }
        },
        {
            "id": "87",
            "type": "Feature",
            "properties": {
                "date": "2022-09-21",
                "depth_to_base": 6.959,
                "ground_level_elevation": 0.64,
                "elevation_at_base": 6.959,
                "standard": "ISO22476D1",
                "location_source_id": "CPT000000198147",
                "color": "#DC143C"
            },
            "geometry": {
                "type": "LineString",
                "coordinates": [
                    [
                        4.906527105588681,
                        52.387698730566434,
                        43.598045788056254
                    ],
                    [
                        4.906527105588681,
                        52.387698730566434,
                        36.63904578805625
                    ]
                ]
            }
        },
        {
            "id": "88",
            "type": "Feature",
            "properties": {
                "date": "2011-05-12",
                "depth_to_base": 25.5,
                "ground_level_elevation": 1.45,
                "elevation_at_base": 25.5,
                "standard": "NEN5140",
                "location_source_id": "CPT000000205801",
                "color": "#0000CD"
            },
            "geometry": {
                "type": "LineString",
                "coordinates": [
                    [
                        4.902450431420587,
                        52.38437464672389,
                        44.41390912184802
                    ],
                    [
                        4.902450431420587,
                        52.38437464672389,
                        18.913909121848018
                    ]
                ]
            }
        },
        {
            "id": "89",
            "type": "Feature",
            "properties": {
                "date": "2017-06-21",
                "depth_to_base": 34.978,
                "ground_level_elevation": 1.46,
                "elevation_at_base": 34.978,
                "standard": "ISO22476D1",
                "location_source_id": "CPT000000203445",
                "color": "#DC143C"
            },
            "geometry": {
                "type": "LineString",
                "coordinates": [
                    [
                        4.9042376332235476,
                        52.384340154655895,
                        44.42351021894669
                    ],
                    [
                        4.9042376332235476,
                        52.384340154655895,
                        9.445510218946687
                    ]
                ]
            }
        },
        {
            "id": "90",
            "type": "Feature",
            "properties": {
                "date": "2013-07-09",
                "depth_to_base": 30.88,
                "ground_level_elevation": 1.83,
                "elevation_at_base": 30.88,
                "standard": "NEN5140",
                "location_source_id": "CPT000000206273",
                "color": "#0000CD"
            },
            "geometry": {
                "type": "LineString",
                "coordinates": [
                    [
                        4.902483133050402,
                        52.38372119534872,
                        44.794849097885205
                    ],
                    [
                        4.902483133050402,
                        52.38372119534872,
                        13.91484909788521
                    ]
                ]
            }
        }
    ]
}